KUIPER-00061            
1 64521U 25134X   26001.16668980 -.00032430  00000+0 -42515-2 0  9998
2 64521  51.8980 166.6713 0000553  80.9667 243.5546 14.79874488  5105
KUIPER-00062            
1 64522U 25134Y   25365.79502931  .00005997  00000+0  72065-3 0  9993
2 64522  51.8943 172.5867 0007489  70.4173 289.7600 14.85104859 30030
KUIPER-00063            
1 64523U 25134Z   25365.89245294  .00004609  00000+0  63322-3 0  9996
2 64523  51.8999 177.8850 0000328 126.7853 233.3139 14.79931279 29966
KUIPER-00064            
1 64524U 25134AA  25365.89510269  .00004985  00000+0  68161-3 0  9997
2 64524  51.9007 175.2923 0007729 126.0091 234.1588 14.79982337 30005
KUIPER-00065            
1 64525U 25134AB  26001.16090963 -.00107948  00000+0 -13935-1 0  9992
2 64525  51.9005 179.2792 0009816  63.1112 297.0853 14.81144248 29955
KUIPER-00066            
1 64526U 25134AC  25365.69116203  .00022835  00000+0  10155-2 0  9990
2 64526  51.8919 145.3049 0000410 345.2693  14.8275 15.21400039 30400
KUIPER-00069            
1 64816U 25151A   25365.98157174  .00004362  00000+0  60055-3 0  9995
2 64816  51.9000 220.0185 0004062  78.8383 281.3036 14.79952300 26730
KUIPER-00070            
1 64817U 25151B   26001.05585561  .00005234  00000+0  71463-3 0  9991
2 64817  51.8999 244.6395 0011213  33.3985 326.7682 14.79934591 26409
