<?xml version="1.0" encoding="UTF-8"?>
<ndm xmlns:xsi="http://www.w3.org/2001/XMLSchema-instance" xsi:noNamespaceSchemaLocation="https://sanaregistry.org/r/ndmxml_unqualified/ndmxml-2.0.0-master-2.0.xsd">
<omm id="CCSDS_OMM_VERS" version="2.0">
<header><CREATION_DATE/><ORIGINATOR/></header><body><segment><metadata><OBJECT_NAME>KUIPER-00061</OBJECT_NAME><OBJECT_ID>2025-134X</OBJECT_ID><CENTER_NAME>EARTH</CENTER_NAME><REF_FRAME>TEME</REF_FRAME><TIME_SYSTEM>UTC</TIME_SYSTEM><MEAN_ELEMENT_THEORY>SGP4</MEAN_ELEMENT_THEORY></metadata><data><meanElements><EPOCH>2026-01-01T04:00:01.998720</EPOCH><MEAN_MOTION>14.79874488</MEAN_MOTION><ECCENTRICITY>.0000553</ECCENTRICITY><INCLINATION>51.8980</INCLINATION><RA_OF_ASC_NODE>166.6713</RA_OF_ASC_NODE><ARG_OF_PERICENTER>80.9667</ARG_OF_PERICENTER><MEAN_ANOMALY>243.5546</MEAN_ANOMALY></meanElements><tleParameters><EPHEMERIS_TYPE>0</EPHEMERIS_TYPE><CLASSIFICATION_TYPE>U</CLASSIFICATION_TYPE><NORAD_CAT_ID>64521</NORAD_CAT_ID><ELEMENT_SET_NO>999</ELEMENT_SET_NO><REV_AT_EPOCH>510</REV_AT_EPOCH><BSTAR>-.42515E-2</BSTAR><MEAN_MOTION_DOT>-.3243E-3</MEAN_MOTION_DOT><MEAN_MOTION_DDOT>0</MEAN_MOTION_DDOT></tleParameters></data></segment></body></omm>
<omm id="CCSDS_OMM_VERS" version="2.0">
<header><CREATION_DATE/><ORIGINATOR/></header><body><segment><metadata><OBJECT_NAME>KUIPER-00062</OBJECT_NAME><OBJECT_ID>2025-134Y</OBJECT_ID><CENTER_NAME>EARTH</CENTER_NAME><REF_FRAME>TEME</REF_FRAME><TIME_SYSTEM>UTC</TIME_SYSTEM><MEAN_ELEMENT_THEORY>SGP4</MEAN_ELEMENT_THEORY></metadata><data><meanElements><EPOCH>2025-12-31T19:04:50.532384</EPOCH><MEAN_MOTION>14.85104859</MEAN_MOTION><ECCENTRICITY>.00074894</ECCENTRICITY><INCLINATION>51.8943</INCLINATION><RA_OF_ASC_NODE>172.5867</RA_OF_ASC_NODE><ARG_OF_PERICENTER>70.4173</ARG_OF_PERICENTER><MEAN_ANOMALY>289.7600</MEAN_ANOMALY></meanElements><tleParameters><EPHEMERIS_TYPE>0</EPHEMERIS_TYPE><CLASSIFICATION_TYPE>U</CLASSIFICATION_TYPE><NORAD_CAT_ID>64522</NORAD_CAT_ID><ELEMENT_SET_NO>999</ELEMENT_SET_NO><REV_AT_EPOCH>3003</REV_AT_EPOCH><BSTAR>.72064847E-3</BSTAR><MEAN_MOTION_DOT>.5997E-4</MEAN_MOTION_DOT><MEAN_MOTION_DDOT>0</MEAN_MOTION_DDOT></tleParameters></data></segment></body></omm>
<omm id="CCSDS_OMM_VERS" version="2.0">
<header><CREATION_DATE/><ORIGINATOR/></header><body><segment><metadata><OBJECT_NAME>KUIPER-00063</OBJECT_NAME><OBJECT_ID>2025-134Z</OBJECT_ID><CENTER_NAME>EARTH</CENTER_NAME><REF_FRAME>TEME</REF_FRAME><TIME_SYSTEM>UTC</TIME_SYSTEM><MEAN_ELEMENT_THEORY>SGP4</MEAN_ELEMENT_THEORY></metadata><data><meanElements><EPOCH>2025-12-31T21:25:07.934016</EPOCH><MEAN_MOTION>14.79931279</MEAN_MOTION><ECCENTRICITY>.0000328</ECCENTRICITY><INCLINATION>51.8999</INCLINATION><RA_OF_ASC_NODE>177.8850</RA_OF_ASC_NODE><ARG_OF_PERICENTER>126.7853</ARG_OF_PERICENTER><MEAN_ANOMALY>233.3139</MEAN_ANOMALY></meanElements><tleParameters><EPHEMERIS_TYPE>0</EPHEMERIS_TYPE><CLASSIFICATION_TYPE>U</CLASSIFICATION_TYPE><NORAD_CAT_ID>64523</NORAD_CAT_ID><ELEMENT_SET_NO>999</ELEMENT_SET_NO><REV_AT_EPOCH>2996</REV_AT_EPOCH><BSTAR>.63322E-3</BSTAR><MEAN_MOTION_DOT>.4609E-4</MEAN_MOTION_DOT><MEAN_MOTION_DDOT>0</MEAN_MOTION_DDOT></tleParameters></data></segment></body></omm>
<omm id="CCSDS_OMM_VERS" version="2.0">
<header><CREATION_DATE/><ORIGINATOR/></header><body><segment><metadata><OBJECT_NAME>KUIPER-00064</OBJECT_NAME><OBJECT_ID>2025-134AA</OBJECT_ID><CENTER_NAME>EARTH</CENTER_NAME><REF_FRAME>TEME</REF_FRAME><TIME_SYSTEM>UTC</TIME_SYSTEM><MEAN_ELEMENT_THEORY>SGP4</MEAN_ELEMENT_THEORY></metadata><data><meanElements><EPOCH>2025-12-31T21:28:56.872416</EPOCH><MEAN_MOTION>14.79982337</MEAN_MOTION><ECCENTRICITY>.0007729</ECCENTRICITY><INCLINATION>51.9007</INCLINATION><RA_OF_ASC_NODE>175.2923</RA_OF_ASC_NODE><ARG_OF_PERICENTER>126.0091</ARG_OF_PERICENTER><MEAN_ANOMALY>234.1588</MEAN_ANOMALY></meanElements><tleParameters><EPHEMERIS_TYPE>0</EPHEMERIS_TYPE><CLASSIFICATION_TYPE>U</CLASSIFICATION_TYPE><NORAD_CAT_ID>64524</NORAD_CAT_ID><ELEMENT_SET_NO>999</ELEMENT_SET_NO><REV_AT_EPOCH>3000</REV_AT_EPOCH><BSTAR>.68161E-3</BSTAR><MEAN_MOTION_DOT>.4985E-4</MEAN_MOTION_DOT><MEAN_MOTION_DDOT>0</MEAN_MOTION_DDOT></tleParameters></data></segment></body></omm>
<omm id="CCSDS_OMM_VERS" version="2.0">
<header><CREATION_DATE/><ORIGINATOR/></header><body><segment><metadata><OBJECT_NAME>KUIPER-00065</OBJECT_NAME><OBJECT_ID>2025-134AB</OBJECT_ID><CENTER_NAME>EARTH</CENTER_NAME><REF_FRAME>TEME</REF_FRAME><TIME_SYSTEM>UTC</TIME_SYSTEM><MEAN_ELEMENT_THEORY>SGP4</MEAN_ELEMENT_THEORY></metadata><data><meanElements><EPOCH>2026-01-01T03:51:42.592032</EPOCH><MEAN_MOTION>14.81144248</MEAN_MOTION><ECCENTRICITY>.0009816</ECCENTRICITY><INCLINATION>51.9005</INCLINATION><RA_OF_ASC_NODE>179.2792</RA_OF_ASC_NODE><ARG_OF_PERICENTER>63.1112</ARG_OF_PERICENTER><MEAN_ANOMALY>297.0853</MEAN_ANOMALY></meanElements><tleParameters><EPHEMERIS_TYPE>0</EPHEMERIS_TYPE><CLASSIFICATION_TYPE>U</CLASSIFICATION_TYPE><NORAD_CAT_ID>64525</NORAD_CAT_ID><ELEMENT_SET_NO>999</ELEMENT_SET_NO><REV_AT_EPOCH>2995</REV_AT_EPOCH><BSTAR>-.13935E-1</BSTAR><MEAN_MOTION_DOT>-.107948E-2</MEAN_MOTION_DOT><MEAN_MOTION_DDOT>0</MEAN_MOTION_DDOT></tleParameters></data></segment></body></omm>
<omm id="CCSDS_OMM_VERS" version="2.0">
<header><CREATION_DATE/><ORIGINATOR/></header><body><segment><metadata><OBJECT_NAME>KUIPER-00066</OBJECT_NAME><OBJECT_ID>2025-134AC</OBJECT_ID><CENTER_NAME>EARTH</CENTER_NAME><REF_FRAME>TEME</REF_FRAME><TIME_SYSTEM>UTC</TIME_SYSTEM><MEAN_ELEMENT_THEORY>SGP4</MEAN_ELEMENT_THEORY></metadata><data><meanElements><EPOCH>2025-12-31T16:35:16.399392</EPOCH><MEAN_MOTION>15.21400039</MEAN_MOTION><ECCENTRICITY>.000041</ECCENTRICITY><INCLINATION>51.8919</INCLINATION><RA_OF_ASC_NODE>145.3049</RA_OF_ASC_NODE><ARG_OF_PERICENTER>345.2693</ARG_OF_PERICENTER><MEAN_ANOMALY>14.8275</MEAN_ANOMALY></meanElements><tleParameters><EPHEMERIS_TYPE>0</EPHEMERIS_TYPE><CLASSIFICATION_TYPE>U</CLASSIFICATION_TYPE><NORAD_CAT_ID>64526</NORAD_CAT_ID><ELEMENT_SET_NO>999</ELEMENT_SET_NO><REV_AT_EPOCH>3040</REV_AT_EPOCH><BSTAR>.10155058E-2</BSTAR><MEAN_MOTION_DOT>.22835E-3</MEAN_MOTION_DOT><MEAN_MOTION_DDOT>0</MEAN_MOTION_DDOT></tleParameters></data></segment></body></omm>
<omm id="CCSDS_OMM_VERS" version="2.0">
<header><CREATION_DATE/><ORIGINATOR/></header><body><segment><metadata><OBJECT_NAME>KUIPER-00069</OBJECT_NAME><OBJECT_ID>2025-151A</OBJECT_ID><CENTER_NAME>EARTH</CENTER_NAME><REF_FRAME>TEME</REF_FRAME><TIME_SYSTEM>UTC</TIME_SYSTEM><MEAN_ELEMENT_THEORY>SGP4</MEAN_ELEMENT_THEORY></metadata><data><meanElements><EPOCH>2025-12-31T23:33:27.798336</EPOCH><MEAN_MOTION>14.79952300</MEAN_MOTION><ECCENTRICITY>.0004062</ECCENTRICITY><INCLINATION>51.9000</INCLINATION><RA_OF_ASC_NODE>220.0185</RA_OF_ASC_NODE><ARG_OF_PERICENTER>78.8383</ARG_OF_PERICENTER><MEAN_ANOMALY>281.3036</MEAN_ANOMALY></meanElements><tleParameters><EPHEMERIS_TYPE>0</EPHEMERIS_TYPE><CLASSIFICATION_TYPE>U</CLASSIFICATION_TYPE><NORAD_CAT_ID>64816</NORAD_CAT_ID><ELEMENT_SET_NO>999</ELEMENT_SET_NO><REV_AT_EPOCH>2673</REV_AT_EPOCH><BSTAR>.60055E-3</BSTAR><MEAN_MOTION_DOT>.4362E-4</MEAN_MOTION_DOT><MEAN_MOTION_DDOT>0</MEAN_MOTION_DDOT></tleParameters></data></segment></body></omm>
<omm id="CCSDS_OMM_VERS" version="2.0">
<header><CREATION_DATE/><ORIGINATOR/></header><body><segment><metadata><OBJECT_NAME>KUIPER-00070</OBJECT_NAME><OBJECT_ID>2025-151B</OBJECT_ID><CENTER_NAME>EARTH</CENTER_NAME><REF_FRAME>TEME</REF_FRAME><TIME_SYSTEM>UTC</TIME_SYSTEM><MEAN_ELEMENT_THEORY>SGP4</MEAN_ELEMENT_THEORY></metadata><data><meanElements><EPOCH>2026-01-01T01:20:25.924704</EPOCH><MEAN_MOTION>14.79934591</MEAN_MOTION><ECCENTRICITY>.0011213</ECCENTRICITY><INCLINATION>51.8999</INCLINATION><RA_OF_ASC_NODE>244.6395</RA_OF_ASC_NODE><ARG_OF_PERICENTER>33.3985</ARG_OF_PERICENTER><MEAN_ANOMALY>326.7682</MEAN_ANOMALY></meanElements><tleParameters><EPHEMERIS_TYPE>0</EPHEMERIS_TYPE><CLASSIFICATION_TYPE>U</CLASSIFICATION_TYPE><NORAD_CAT_ID>64817</NORAD_CAT_ID><ELEMENT_SET_NO>999</ELEMENT_SET_NO><REV_AT_EPOCH>2640</REV_AT_EPOCH><BSTAR>.71463E-3</BSTAR><MEAN_MOTION_DOT>.5234E-4</MEAN_MOTION_DOT><MEAN_MOTION_DDOT>0</MEAN_MOTION_DDOT></tleParameters></data></segment></body></omm>

</ndm>
